NORAD_CAT_ID,OBJECT_NAME,OBJECT_TYPE,EPOCH,MEAN_MOTION,ECCENTRICITY,INCLINATION,RA_OF_ASC_NODE,ARG_OF_PERICENTER,MEAN_ANOMALY,BSTAR,MEAN_MOTION_DOT,MEAN_MOTION_DDOT,TLE_LINE0,TLE_LINE1,TLE_LINE2,SEMIMAJOR_AXIS,PERIOD,APOGEE,PERIGEE,DECAYED
56468.0,STARLINK-5998,PAYLOAD,2023-06-20 22:00:00,15.49956503,0.0003413,70.0005,130.1242,262.7425,137.3189,-0.018727,-0.00963936,0.0,0 STARLINK-5998,1 56468U 23064W   23171.91667824 -.00963936  00000-0 -18727-1 0  9995,2 56468  70.0005 130.1242 0003413 262.7425 137.3189 15.49956503  6820,6794.99,92.906,419.174,414.536,0.0
56468.0,STARLINK-5998,PAYLOAD,2023-06-21 14:00:01,15.48605572,0.0003172,70.0002,128.3067,267.3806,249.8336,-0.018278,-0.00890033,0.0,0 STARLINK-5998,1 56468U 23064W   23172.58334491 -.00890033  00000-0 -18278-1 0  9998,2 56468  70.0002 128.3067 0003172 267.3806 249.8336 15.48605572  6938,6798.941,92.987,422.963,418.65,0.0
56468.0,STARLINK-5998,PAYLOAD,2023-06-21 22:00:01,15.47994078,0.0003226,70.0007,127.3996,264.2216,310.4335,-0.019829,-0.0095335,0.0,0 STARLINK-5998,1 56468U 23064W   23172.91668981 -.00953350  00000-0 -19829-1 0  9994,2 56468  70.0007 127.3996 0003226 264.2216 310.4335 15.47994078  1305,6800.732,93.024,424.791,420.403,0.0
56468.0,STARLINK-5998,PAYLOAD,2023-06-22 06:00:00,15.47296378,0.0003254,70.0007,126.4931,271.559,359.6591,-0.018699,-0.00871552,0.0,0 STARLINK-5998,1 56468U 23064W   23173.25001157 -.00871552  00000-0 -18699-1 0  9995,2 56468  70.0007 126.4931 0003254 271.5590 359.6591 15.47296378  7034,6802.776,93.066,426.855,422.427,0.0
56468.0,STARLINK-5998,PAYLOAD,2023-06-22 20:00:01,15.46189612,0.0003346,70.0004,124.909,264.7335,13.6562,-0.020569,-0.00930796,0.0,0 STARLINK-5998,1 56468U 23064W   23173.83334491 -.00930796  00000-0 -20569-1 0  9994,2 56468  70.0004 124.9090 0003346 264.7335  13.6562 15.46189612  7129,6806.022,93.132,430.164,425.61,0.0
56468.0,STARLINK-5998,PAYLOAD,2023-06-23 22:00:01,15.4408206,0.0003247,70.0004,121.9746,267.3411,275.2473,-0.022854,-0.00959521,0.0,0 STARLINK-5998,1 56468U 23064W   23174.91668981 -.00959521  00000-0 -22854-1 0  9994,2 56468  70.0004 121.9746 0003247 267.3411 275.2473 15.44082060  7290,6812.214,93.259,436.291,431.867,0.0
56468.0,STARLINK-5998,PAYLOAD,2023-06-24 14:00:01,15.42721349,0.0003367,69.9999,120.1732,267.9721,17.6242,-0.021716,-0.00877428,0.0,0 STARLINK-5998,1 56468U 23064W   23175.58334491 -.00877428  00000-0 -21716-1 0  9995,2 56468  69.9999 120.1732 0003367 267.9721  17.6242 15.42721349  7390,6816.219,93.342,440.379,435.789,0.0
56468.0,STARLINK-5998,PAYLOAD,2023-06-25 06:00:00,15.41420418,0.0003603,70.0,118.3754,275.0138,110.5021,-0.022603,-0.0087457,0.0,0 STARLINK-5998,1 56468U 23064W   23176.25001157 -.00874570  00000-0 -22603-1 0  9991,2 56468  70.0000 118.3754 0003603 275.0138 110.5021 15.41420418  7495,6820.053,93.42,444.376,439.461,0.0
56468.0,STARLINK-5998,PAYLOAD,2023-06-25 22:00:01,15.40162706,0.0003478,70.0,116.5809,268.9886,213.3726,-0.025893,-0.00953667,0.0,0 STARLINK-5998,1 56468U 23064W   23176.91668981 -.00953667  00000-0 -25893-1 0  9997,2 56468  70.0000 116.5809 0003478 268.9886 213.3726 15.40162706  7606,6823.766,93.497,448.004,443.257,0.0
56468.0,STARLINK-5998,PAYLOAD,2023-06-26 14:00:01,15.38807285,0.000335,69.9997,114.79,268.6139,307.3642,-0.024679,-0.00875624,0.0,0 STARLINK-5998,1 56468U 23064W   23177.58334491 -.00875624  00000-0 -24679-1 0  9994,2 56468  69.9997 114.7900 0003350 268.6139 307.3642 15.38807285  7704,6827.772,93.579,451.924,447.35,0.0
56468.0,STARLINK-5998,PAYLOAD,2023-06-27 06:00:00,15.37515016,0.0003473,69.9997,113.0029,274.1061,32.4001,-0.026083,-0.00886315,0.0,0 STARLINK-5998,1 56468U 23064W   23178.25001157 -.00886315  00000-0 -26083-1 0  9999,2 56468  69.9997 113.0029 0003473 274.1061  32.4001 15.37515016  7803,6831.597,93.658,455.835,451.09,0.0
56468.0,STARLINK-5998,PAYLOAD,2023-06-27 22:00:00,15.36261105,0.0003489,69.9998,111.2195,270.4706,123.4297,-0.030232,-0.00977832,0.0,0 STARLINK-5998,1 56468U 23064W   23178.91667824 -.00977832  00000-0 -30232-1 0  9997,2 56468  69.9998 111.2195 0003489 270.4706 123.4297 15.36261105  7905,6835.314,93.734,459.564,454.794,0.0
56468.0,STARLINK-5998,PAYLOAD,2023-06-28 14:00:01,15.34881269,0.0003248,69.9997,109.4394,270.4306,207.7693,-0.027155,-0.00850435,0.0,0 STARLINK-5998,1 56468U 23064W   23179.58334491 -.00850435  00000-0 -27155-1 0  9991,2 56468  69.9997 109.4394 0003248 270.4306 207.7693 15.34881269  8019,6839.41,93.818,463.497,459.054,0.0
56468.0,STARLINK-5998,PAYLOAD,2023-06-29 22:00:00,15.32332328,0.0003305,70.0004,105.8899,268.3453,9.0061,-0.033374,-0.00954453,0.0,0 STARLINK-5998,1 56468U 23064W   23180.91667824 -.00954453  00000-0 -33374-1 0  9994,2 56468  70.0004 105.8899 0003305 268.3453   9.0061 15.32332328  8213,6846.993,93.974,471.121,466.595,0.0
56468.0,STARLINK-5998,PAYLOAD,2023-06-30 22:00:00,15.30372579,0.0003363,70.0008,103.2371,270.0713,118.443,-0.035363,-0.00963695,0.0,0 STARLINK-5998,1 56468U 23064W   23181.91667824 -.00963695  00000-0 -35363-1 0  9993,2 56468  70.0008 103.2371 0003363 270.0713 118.4430 15.30372579  8379,6852.837,94.095,477.006,472.397,0.0
56468.0,STARLINK-5998,PAYLOAD,2023-07-01 12:00:00,15.2918924,0.0003226,70.0006,101.6931,271.5867,88.5335,-0.033926,-0.00885554,0.0,0 STARLINK-5998,1 56468U 23064W   23182.50001157 -.00885554  00000-0 -33926-1 0  9990,2 56468  70.0006 101.6931 0003226 271.5867  88.5335 15.29189240  8454,6856.372,94.168,480.449,476.025,0.0
56468.0,STARLINK-5998,PAYLOAD,2023-07-02 04:00:00,15.27892174,0.0003199,70.0011,99.932,276.6538,150.9172,-0.035123,-0.00881323,0.0,0 STARLINK-5998,1 56468U 23064W   23183.16667824 -.00881323  00000-0 -35123-1 0  9993,2 56468  70.0011  99.9320 0003199 276.6538 150.9172 15.27892174  8561,6860.251,94.247,484.311,479.922,0.0
56468.0,STARLINK-5998,PAYLOAD,2023-07-04 06:00:02,15.2384343,0.0003179,70.0008,94.4515,274.3984,73.8662,-0.042095,-0.00941926,0.0,0 STARLINK-5998,1 56468U 23064W   23185.25002315 -.00941926  00000-0 -42095-1 0  9995,2 56468  70.0008  94.4515 0003179 274.3984  73.8662 15.23843430  8879,6872.398,94.498,496.447,492.078,0.0
56468.0,STARLINK-5998,PAYLOAD,2023-07-05 14:00:01,15.21190343,0.0003126,70.0004,90.9621,270.1072,184.142,-0.041292,-0.00849963,0.0,0 STARLINK-5998,1 56468U 23064W   23186.58335648 -.00849963  00000-0 -41292-1 0  9996,2 56468  70.0004  90.9621 0003126 270.1072 184.1420 15.21190343  9086,6880.386,94.663,504.402,500.1,0.0
56468.0,STARLINK-5998,PAYLOAD,2023-07-05 22:00:01,15.20563468,0.0003112,70.0004,90.0919,272.115,206.6731,-0.045675,-0.0092856,0.0,0 STARLINK-5998,1 56468U 23064W   23186.91668981 -.00928560  00000-0 -45675-1 0  9992,2 56468  70.0004  90.0919 0003112 272.1150 206.6731 15.20563468  9133,6882.277,94.702,506.284,502.0,0.0
56468.0,STARLINK-5998,PAYLOAD,2023-07-07 06:00:00,15.1797796,0.0002927,69.9996,86.6195,274.4183,294.618,-0.050606,-0.00952347,0.0,0 STARLINK-5998,1 56468U 23064W   23188.25001157 -.00952347  00000-0 -50606-1 0  9997,2 56468  69.9996  86.6195 0002927 274.4183 294.6180 15.17977960  9330,6890.09,94.863,513.971,509.938,0.0
56468.0,STARLINK-5998,PAYLOAD,2023-07-07 22:00:00,15.16637411,0.0003082,69.9998,84.8885,271.0254,338.4994,-0.049899,-0.00907011,0.0,0 STARLINK-5998,1 56468U 23064W   23188.91667824 -.00907011  00000-0 -49899-1 0  9999,2 56468  69.9998  84.8885 0003082 271.0254 338.4994 15.16637411  9437,6894.149,94.947,518.139,513.889,0.0
56468.0,STARLINK-5998,PAYLOAD,2023-07-08 22:00:00,15.14677707,0.0003143,69.9998,82.2985,271.5455,32.8175,-0.052364,-0.00900626,0.0,0 STARLINK-5998,1 56468U 23064W   23189.91667824 -.00900626  00000-0 -52364-1 0  9996,2 56468  69.9998  82.2985 0003143 271.5455  32.8175 15.14677707  9588,6900.094,95.07,524.128,519.79,0.0
56468.0,STARLINK-5998,PAYLOAD,2023-07-09 14:00:01,15.1337674,0.0003177,69.9998,80.5762,268.3248,68.6739,-0.053074,-0.00881358,0.0,0 STARLINK-5998,1 56468U 23064W   23190.58334491 -.00881358  00000-0 -53074-1 0  9991,2 56468  69.9998  80.5762 0003177 268.3248  68.6739 15.13376740  9689,6904.048,95.151,528.106,523.72,0.0
56468.0,STARLINK-5998,PAYLOAD,2023-07-10 04:00:00,15.12254497,0.0003025,69.9997,79.0719,275.1426,357.8516,-0.05753,-0.00922498,0.0,0 STARLINK-5998,1 56468U 23064W   23191.16667824 -.00922498  00000-0 -57530-1 0  9997,2 56468  69.9997  79.0719 0003025 275.1426 357.8516 15.12254497  9778,6907.463,95.222,531.418,527.239,0.0
56468.0,STARLINK-5998,PAYLOAD,2023-07-11 06:00:00,15.10154704,0.0003047,69.9999,76.2858,277.1366,127.7802,-0.063931,-0.009636,0.0,0 STARLINK-5998,1 56468U 23064W   23192.25001157 -.00963600  00000-0 -63931-1 0  9991,2 56468  69.9999  76.2858 0003047 277.1366 127.7802 15.10154704  9941,6913.865,95.354,537.836,533.623,0.0
56468.0,STARLINK-5998,PAYLOAD,2023-07-11 22:00:00,15.08801757,0.0003116,70.0003,74.5758,275.7847,150.8467,-0.060843,-0.00889155,0.0,0 STARLINK-5998,1 56468U 23064W   23192.91667824 -.00889155  00000-0 -60843-1 0  9994,2 56468  70.0003  74.5758 0003116 275.7847 150.8467 15.08801757 10046,6917.997,95.44,542.018,537.707,0.0
56468.0,STARLINK-5998,PAYLOAD,2023-07-12 14:00:01,15.0751915,0.0003064,70.0003,72.8693,271.5436,173.7005,-0.064076,-0.00903029,0.0,0 STARLINK-5998,1 56468U 23064W   23193.58335648 -.00903029  00000-0 -64076-1 0  9993,2 56468  70.0003  72.8693 0003064 271.5436 173.7005 15.07519150 10140,6921.921,95.521,545.907,541.665,0.0
56468.0,STARLINK-5998,PAYLOAD,2023-07-13 18:00:00,15.05268509,0.000314,70.0006,69.8909,264.8278,25.3094,-0.073702,-0.00982925,0.0,0 STARLINK-5998,1 56468U 23064W   23194.75001157 -.00982925  00000-0 -73702-1 0  9996,2 56468  70.0006  69.8909 0003140 264.8278  25.3094 15.05268509 10319,6928.819,95.664,552.859,548.508,0.0
56468.0,STARLINK-5998,PAYLOAD,2023-07-14 04:00:01,15.04439867,0.0003091,70.0001,68.8295,272.9104,113.8833,-0.073214,-0.00945841,0.0,0 STARLINK-5998,1 56468U 23064W   23195.16668981 -.00945841  00000-0 -73214-1 0  9990,2 56468  70.0001  68.8295 0003091 272.9104 113.8833 15.04439867 10381,6931.363,95.717,555.37,551.085,0.0
